BANDWAGON-2 OBJECT D    
1 62380U 24247D   26068.52261193  .00011259  00000+0  40119-3 0  9994
2 62380  44.9954 115.6710 0003488 351.1453   8.9368 15.29076102 67732
STARLINK-34661          
1 64927U 25157Z   26068.17691286  .00036990  00000+0  12554-2 0  9995
2 64927  53.1605 348.1565 0000850 103.4154 256.6942 15.30185177 35766
